[
    {
        "Altitude(m)": 706980.2162096763,
        "Argument of Periapsis(deg)": 0.011390121186627068,
        "Eccentricity": 0.0,
        "Inclination(deg)": 45.0,
        "Latitude(deg)": 43.700665285877946,
        "Longitude(deg)": 1.1247835802415436,
        "Mean Anomaly(deg)": 76.98771664748082,
        "RAAN(deg)": 29.989248058541794,
        "Satellite Name": "Constellation 1 136",
        "Satellite Number": 136,
        "Semi-Major Axis(m)": 7083131.272910544,
        "Time(s)": 190
    },
    {
        "Altitude(m)": 706983.2113088827,
        "Argument of Periapsis(deg)": 0.011450069192872472,
        "Eccentricity": 0.0,
        "Inclination(deg)": 45.0,
        "Latitude(deg)": 43.71400273087795,
        "Longitude(deg)": 1.2024354963067856,
        "Mean Anomaly(deg)": 77.04841778773073,
        "RAAN(deg)": 29.98919146937622,
        "Satellite Name": "Constellation 1 136",
        "Satellite Number": 136,
        "Semi-Major Axis(m)": 7083131.272910544,
        "Time(s)": 191
    },
    {
        "Altitude(m)": 706986.1936767856,
        "Argument of Periapsis(deg)": 0.01151001719911788,
        "Eccentricity": 0.0,
        "Inclination(deg)": 45.0,
        "Latitude(deg)": 43.72728165952287,
        "Longitude(deg)": 1.2801235808510318,
        "Mean Anomaly(deg)": 77.1091189279806,
        "RAAN(deg)": 29.989134880210656,
        "Satellite Name": "Constellation 1 136",
        "Satellite Number": 136,
        "Semi-Major Axis(m)": 7083131.272910544,
        "Time(s)": 192
    },
    {
        "Altitude(m)": 706989.1632958362,
        "Argument of Periapsis(deg)": 0.011569965205363285,
        "Eccentricity": 0.0,
        "Inclination(deg)": 45.0,
        "Latitude(deg)": 43.740502019324644,
        "Longitude(deg)": 1.3578475393492908,
        "Mean Anomaly(deg)": 77.16982006823052,
        "RAAN(deg)": 29.989078291045082,
        "Satellite Name": "Constellation 1 136",
        "Satellite Number": 136,
        "Semi-Major Axis(m)": 7083131.272910544,
        "Time(s)": 193
    },
    {
        "Altitude(m)": 706992.1201485614,
        "Argument of Periapsis(deg)": 0.01162991321160869,
        "Eccentricity": 0.0,
        "Inclination(deg)": 45.0,
        "Latitude(deg)": 43.75366375796921,
        "Longitude(deg)": 1.4356075810288371,
        "Mean Anomaly(deg)": 77.23052120848043,
        "RAAN(deg)": 29.989021701879516,
        "Satellite Name": "Constellation 1 136",
        "Satellite Number": 136,
        "Semi-Major Axis(m)": 7083131.272910544,
        "Time(s)": 194
    },
    {
        "Altitude(m)": 706995.0642175465,
        "Argument of Periapsis(deg)": 0.011689861217854095,
        "Eccentricity": 0.0,
        "Inclination(deg)": 45.0,
        "Latitude(deg)": 43.76676682331554,
        "Longitude(deg)": 1.513403410288356,
        "Mean Anomaly(deg)": 77.29122234873032,
        "RAAN(deg)": 29.98896511271394,
        "Satellite Name": "Constellation 1 136",
        "Satellite Number": 136,
        "Semi-Major Axis(m)": 7083131.272910544,
        "Time(s)": 195
    },
    {
        "Altitude(m)": 706997.9954854831,
        "Argument of Periapsis(deg)": 0.0117498092240995,
        "Eccentricity": 0.0,
        "Inclination(deg)": 45.0,
        "Latitude(deg)": 43.779811163397895,
        "Longitude(deg)": 1.5912348990868483,
        "Mean Anomaly(deg)": 77.3519234889802,
        "RAAN(deg)": 29.98890852354838,
        "Satellite Name": "Constellation 1 136",
        "Satellite Number": 136,
        "Semi-Major Axis(m)": 7083131.272910544,
        "Time(s)": 196
    },
    {
        "Altitude(m)": 707000.9139351122,
        "Argument of Periapsis(deg)": 0.011809757230344905,
        "Eccentricity": 0.0,
        "Inclination(deg)": 45.0,
        "Latitude(deg)": 43.79279672642621,
        "Longitude(deg)": 1.6691019188477567,
        "Mean Anomaly(deg)": 77.41262462923012,
        "RAAN(deg)": 29.988851934382804,
        "Satellite Name": "Constellation 1 136",
        "Satellite Number": 136,
        "Semi-Major Axis(m)": 7083131.272910544,
        "Time(s)": 197
    },
    {
        "Altitude(m)": 707003.819549271,
        "Argument of Periapsis(deg)": 0.011869705236590313,
        "Eccentricity": 0.0,
        "Inclination(deg)": 45.0,
        "Latitude(deg)": 43.8057234607871,
        "Longitude(deg)": 1.747004340459684,
        "Mean Anomaly(deg)": 77.47332576948001,
        "RAAN(deg)": 29.988795345217234,
        "Satellite Name": "Constellation 1 136",
        "Satellite Number": 136,
        "Semi-Major Axis(m)": 7083131.272910544,
        "Time(s)": 198
    },
    {
        "Altitude(m)": 707006.7123108617,
        "Argument of Periapsis(deg)": 0.011929653242835719,
        "Eccentricity": 0.0,
        "Inclination(deg)": 45.0,
        "Latitude(deg)": 43.81859131504485,
        "Longitude(deg)": 1.8249420342777556,
        "Mean Anomaly(deg)": 77.53402690972992,
        "RAAN(deg)": 29.988738756051667,
        "Satellite Name": "Constellation 1 136",
        "Satellite Number": 136,
        "Semi-Major Axis(m)": 7083131.272910544,
        "Time(s)": 199
    }
]